[
    {
        "fname": "Nate",
        "lname": "Hutchings",
        "tel": "(583)104-0013",
        "address": "1088 Pulvinar Ln",
        "city": "Ferndale",
        "state": "MD",
        "zip": 59968
    },
    {
        "fname": "Janine",
        "lname": "Aresti",
        "tel": "(528)348-4288",
        "address": "7842 Vestibulum Rd",
        "city": "San Diego",
        "state": "PA",
        "zip": 74175
    },
    {
        "fname": "Mirza",
        "lname": "Mettais",
        "tel": "(579)126-5284",
        "address": "9304 Sit Rd",
        "city": "Anchorage",
        "state": "NM",
        "zip": 91040
    },
    {
        "fname": "Nakia",
        "lname": "Boudreau",
        "tel": "(671)704-9457",
        "address": "1947 Pharetra St",
        "city": "Nicholasville",
        "state": "NH",
        "zip": 59052
    },
    {
        "fname": "Nichelle",
        "lname": "Cook",
        "tel": "(627)510-0989",
        "address": "363 Sed Dr",
        "city": "Greensboro",
        "state": "AR",
        "zip": 16634
    },
    {
        "fname": "Irina",
        "lname": "Volz",
        "tel": "(494)687-2748",
        "address": "8512 In Ct",
        "city": "Wasington Dc",
        "state": "MS",
        "zip": 41997
    },
    {
        "fname": "Anthony",
        "lname": "Short",
        "tel": "(805)929-2828",
        "address": "3081 Sed Rd",
        "city": "Williamstown",
        "state": "ID",
        "zip": 31832
    },
    {
        "fname": "Cleo",
        "lname": "Gill",
        "tel": "(789)148-4465",
        "address": "9324 Donec St",
        "city": "St. Louis",
        "state": "MT",
        "zip": 22087
    },
    {
        "fname": "Rossana",
        "lname": "Barrientos",
        "tel": "(590)857-9910",
        "address": "7467 Placerat Ln",
        "city": "Tinley Park",
        "state": "MA",
        "zip": 96972
    },
    {
        "fname": "Miriam",
        "lname": "Frame",
        "tel": "(275)086-2418",
        "address": "421 Vestibulum Ln",
        "city": "Washington",
        "state": "MI",
        "zip": 54625
    },
    {
        "fname": "Grady",
        "lname": "Budgell",
        "tel": "(955)711-8073",
        "address": "3779 Vitae Rd",
        "city": "Westminster",
        "state": "SC",
        "zip": 28081
    },
    {
        "fname": "Misty",
        "lname": "Filleul",
        "tel": "(964)590-5364",
        "address": "330 Lacus Rd",
        "city": "Centereach",
        "state": "SC",
        "zip": 34769
    },
    {
        "fname": "Roslyn",
        "lname": "Whitham",
        "tel": "(579)717-4696",
        "address": "3653 Nullam Dr",
        "city": "Conroe",
        "state": "WY",
        "zip": 82546
    },
    {
        "fname": "Dwain",
        "lname": "Maddalone",
        "tel": "(512)888-7343",
        "address": "9796 Lacus Ln",
        "city": "Conroe",
        "state": "CT",
        "zip": 38591
    },
    {
        "fname": "Cynthia",
        "lname": "Armstrong",
        "tel": "(765)292-0365",
        "address": "5009 Vel Ave",
        "city": "Grand Ledge",
        "state": "SC",
        "zip": 81189
    },
    {
        "fname": "Truefelia",
        "lname": "Hiles",
        "tel": "(556)444-7401",
        "address": "7411 Pharetra Ct",
        "city": "Henderson",
        "state": "WI",
        "zip": 85978
    },
    {
        "fname": "Fred",
        "lname": "Chandrasekahran",
        "tel": "(418)578-8097",
        "address": "7390 Vitae St",
        "city": "Redwood City",
        "state": "WY",
        "zip": 24680
    },
    {
        "fname": "Marvin",
        "lname": "Walker",
        "tel": "(382)313-6545",
        "address": "7489 Nec Ct",
        "city": "Hopatcong",
        "state": "NC",
        "zip": 97520
    },
    {
        "fname": "Josh",
        "lname": "David",
        "tel": "(831)240-1906",
        "address": "5646 Amet Ct",
        "city": "Goodyear",
        "state": "FL",
        "zip": 70686
    },
    {
        "fname": "Cavanaugh",
        "lname": "Mathis",
        "tel": "(219)674-4386",
        "address": "7882 Magna Dr",
        "city": "Brooklyn",
        "state": "MI",
        "zip": 13097
    },
    {
        "fname": "Ida",
        "lname": "Byrd",
        "tel": "(692)759-1570",
        "address": "3394 Tortor Ln",
        "city": "Janesville",
        "state": "MA",
        "zip": 29226
    },
    {
        "fname": "Kimberly",
        "lname": "Merle",
        "tel": "(894)244-5721",
        "address": "7116 Eget St",
        "city": "Wellborn",
        "state": "ID",
        "zip": 42323
    },
    {
        "fname": "Arun",
        "lname": "Tubbytelly",
        "tel": "(676)886-3339",
        "address": "2394 Aliquam Ln",
        "city": "Traverse City",
        "state": "UT",
        "zip": 72219
    },
    {
        "fname": "Tracey",
        "lname": "Schwier",
        "tel": "(983)715-2324",
        "address": "7473 Pulvinar Rd",
        "city": "Akron",
        "state": "NV",
        "zip": 77776
    },
    {
        "fname": "Melody",
        "lname": "Woode",
        "tel": "(771)377-3940",
        "address": "7292 Et Rd",
        "city": "Tampa",
        "state": "MI",
        "zip": 80497
    },
    {
        "fname": "Joanne",
        "lname": "Wolz",
        "tel": "(280)780-1217",
        "address": "4313 Quis Rd",
        "city": "Elizabethtown",
        "state": "GA",
        "zip": 20285
    },
    {
        "fname": "Sergio",
        "lname": "Ritchie",
        "tel": "(993)376-4895",
        "address": "962 Vestibulum Dr",
        "city": "Kalamazoo",
        "state": "TX",
        "zip": 63713
    },
    {
        "fname": "Corretta",
        "lname": "Finn",
        "tel": "(517)297-7801",
        "address": "6134 Fringilla Ct",
        "city": "Bradford",
        "state": "NE",
        "zip": 75104
    },
    {
        "fname": "Prince",
        "lname": "Nuccio",
        "tel": "(227)738-6828",
        "address": "5512 Facilisis Rd",
        "city": "North Barrington",
        "state": "PA",
        "zip": 68035
    },
    {
        "fname": "Rena",
        "lname": "Penty",
        "tel": "(851)227-5990",
        "address": "1802 Curabitur St",
        "city": "Westminster",
        "state": "WV",
        "zip": 51218
    },
    {
        "fname": "Pele",
        "lname": "Clare",
        "tel": "(762)881-7321",
        "address": "1645 Porta Rd",
        "city": "Cumming",
        "state": "AL",
        "zip": 18301
    },
    {
        "fname": "Katina",
        "lname": "Wathen",
        "tel": "(286)450-5806",
        "address": "8113 Sagittis Ct",
        "city": "Holland",
        "state": "NY",
        "zip": 10934
    },
    {
        "fname": "Erma",
        "lname": "Teel",
        "tel": "(289)276-8810",
        "address": "1637 Sit Ct",
        "city": "Newburg",
        "state": "VT",
        "zip": 77424
    },
    {
        "fname": "Braulio",
        "lname": "Dewolfe",
        "tel": "(815)525-3067",
        "address": "1786 At Rd",
        "city": "Kitchener",
        "state": "NM",
        "zip": 77529
    },
    {
        "fname": "Veronica",
        "lname": "Boyle",
        "tel": "(858)515-4880",
        "address": "6475 Porta Dr",
        "city": "Fort Hood",
        "state": "IN",
        "zip": 83057
    },
    {
        "fname": "Cynthia",
        "lname": "Black",
        "tel": "(365)152-0935",
        "address": "1860 Egestas Ln",
        "city": "Granite Falls",
        "state": "TX",
        "zip": 80822
    },
    {
        "fname": "Dedun",
        "lname": "Lamorella",
        "tel": "(347)933-3449",
        "address": "1527 Aliquam Ln",
        "city": "Church Point",
        "state": "IN",
        "zip": 26307
    },
    {
        "fname": "Leon",
        "lname": "Rooprai",
        "tel": "(629)282-4881",
        "address": "6836 Ac Rd",
        "city": "New London Area",
        "state": "UT",
        "zip": 57607
    },
    {
        "fname": "Lavette",
        "lname": "Feger",
        "tel": "(640)814-8172",
        "address": "2427 Elit St",
        "city": "Idaho Falls",
        "state": "NM",
        "zip": 57867
    },
    {
        "fname": "Arturo",
        "lname": "Lenze",
        "tel": "(145)075-9815",
        "address": "4119 Scelerisque Ct",
        "city": "Edison",
        "state": "VT",
        "zip": 46947
    },
    {
        "fname": "Harry",
        "lname": "Robinson",
        "tel": "(304)658-3766",
        "address": "2036 Odio Ave",
        "city": "Burke",
        "state": "KY",
        "zip": 76769
    },
    {
        "fname": "Sukanya",
        "lname": "Sawyer",
        "tel": "(718)521-6501",
        "address": "3926 Morbi St",
        "city": "Orange",
        "state": "LA",
        "zip": 60220
    },
    {
        "fname": "Arun",
        "lname": "Demerath",
        "tel": "(101)001-8029",
        "address": "3484 Vitae Ct",
        "city": "Selma",
        "state": "MN",
        "zip": 43498
    },
    {
        "fname": "Veena",
        "lname": "Lazier",
        "tel": "(384)702-0403",
        "address": "7063 Dolor Ct",
        "city": "Vienna",
        "state": "ID",
        "zip": 40364
    },
    {
        "fname": "Narendra",
        "lname": "Mcallister",
        "tel": "(518)891-3530",
        "address": "3211 Sed St",
        "city": "Woonsocket",
        "state": "KS",
        "zip": 85650
    },
    {
        "fname": "Jawdat",
        "lname": "Culin",
        "tel": "(857)409-9573",
        "address": "3027 Donec Rd",
        "city": "Larimore",
        "state": "NV",
        "zip": 52537
    },
    {
        "fname": "Shunita",
        "lname": "Bliss",
        "tel": "(208)021-3817",
        "address": "406 At Rd",
        "city": "Hampton",
        "state": "WY",
        "zip": 74576
    },
    {
        "fname": "Enrique",
        "lname": "Claudio",
        "tel": "(487)470-6800",
        "address": "3236 Risus Ln",
        "city": "Catlettsburg",
        "state": "NE",
        "zip": 21412
    },
    {
        "fname": "Glenn",
        "lname": "Tisi",
        "tel": "(642)473-1782",
        "address": "6674 Mi Ct",
        "city": "Chester",
        "state": "SD",
        "zip": 55574
    },
    {
        "fname": "Suanne",
        "lname": "Nolan",
        "tel": "(153)967-3774",
        "address": "7779 Amet Ct",
        "city": "Pickerington",
        "state": "SC",
        "zip": 50948
    }
]